start=new Date('2023-06-12T00:00:00.000Z').valueOf();
sats=[{"SITE":"AFETR","REV_AT_EPOCH":"485","TIME_SYSTEM":"UTC","DECAY_DATE":null,"CLASSIFICATION_TYPE":"U","SEMIMAJOR_AXIS":"6733.179","INCLINATION":"42.9998","ELEMENT_SET_NO":"999","TLE_LINE1":"1 56529U 23065AC  23162.36601560  .00000934  00000-0  10566-4 0  9992","COUNTRY_CODE":"US","APOAPSIS":"355.902","MEAN_MOTION_DDOT":"0.0000000000000","OBJECT_ID":"2023-065AC","CENTER_NAME":"EARTH","NORAD_CAT_ID":"56529","LAUNCH_DATE":"2023-05-14","PERIAPSIS":"354.186","RA_OF_ASC_NODE":"274.4097","MEAN_ANOMALY":"81.4101","ECCENTRICITY":"0.00012740","MEAN_MOTION_DOT":"0.00000934","EPHEMERIS_TYPE":"0","EPOCH":"2023-06-11T08:47:03.747840","REF_FRAME":"TEME","OBJECT_TYPE":"PAYLOAD","FILE":"3930638","MEAN_ELEMENT_THEORY":"SGP4","RCS_SIZE":"LARGE","OBJECT_NAME":"STARLINK-6307","TLE_LINE2":"2 56529  42.9998 274.4097 0001274 278.6622  81.4101 15.71348536  4855","GP_ID":"233701183","PERIOD":"91.641","MEAN_MOTION":"15.71348536","ARG_OF_PERICENTER":"278.6622","BSTAR":"0.00001056600000"},{"TLE_LINE1":"1 56530U 23065AD  23162.68413625  .00001067  00000-0  11586-4 0  9993","ELEMENT_SET_NO":"999","COUNTRY_CODE":"US","APOAPSIS":"356.047","DECAY_DATE":null,"SEMIMAJOR_AXIS":"6733.175","CLASSIFICATION_TYPE":"U","INCLINATION":"42.9983","TIME_SYSTEM":"UTC","SITE":"AFETR","REV_AT_EPOCH":"569","ECCENTRICITY":"0.00014970","MEAN_MOTION_DOT":"0.00001067","PERIAPSIS":"354.032","RA_OF_ASC_NODE":"272.4945","MEAN_ANOMALY":"92.5003","NORAD_CAT_ID":"56530","LAUNCH_DATE":"2023-05-14","MEAN_MOTION_DDOT":"0.0000000000000","OBJECT_ID":"2023-065AD","CENTER_NAME":"EARTH","OBJECT_NAME":"STARLINK-6318","TLE_LINE2":"2 56530  42.9983 272.4945 0001497 267.5694  92.5003 15.71350094  5693","GP_ID":"233730465","RCS_SIZE":"LARGE","REF_FRAME":"TEME","OBJECT_TYPE":"PAYLOAD","MEAN_ELEMENT_THEORY":"SGP4","FILE":"3930737","EPHEMERIS_TYPE":"0","EPOCH":"2023-06-11T16:25:09.372000","ARG_OF_PERICENTER":"267.5694","BSTAR":"0.00001158600000","MEAN_MOTION":"15.71350094","PERIOD":"91.641"},{"APOAPSIS":"355.932","ELEMENT_SET_NO":"999","TLE_LINE1":"1 56531U 23065AE  23162.36590771  .00002506  00000-0  22555-4 0  9994","COUNTRY_CODE":"US","SEMIMAJOR_AXIS":"6733.185","CLASSIFICATION_TYPE":"U","INCLINATION":"42.9997","DECAY_DATE":null,"TIME_SYSTEM":"UTC","SITE":"AFETR","REV_AT_EPOCH":"564","MEAN_MOTION_DOT":"0.00002506","ECCENTRICITY":"0.00013090","RA_OF_ASC_NODE":"274.4098","MEAN_ANOMALY":"85.5023","PERIAPSIS":"354.169","LAUNCH_DATE":"2023-05-14","NORAD_CAT_ID":"56531","OBJECT_ID":"2023-065AE","CENTER_NAME":"EARTH","MEAN_MOTION_DDOT":"0.0000000000000","GP_ID":"233698501","TLE_LINE2":"2 56531  42.9997 274.4098 0001309 274.5695  85.5023 15.71346372  5644","OBJECT_NAME":"STARLINK-6280","RCS_SIZE":"LARGE","OBJECT_TYPE":"PAYLOAD","FILE":"3930529","MEAN_ELEMENT_THEORY":"SGP4","REF_FRAME":"TEME","EPOCH":"2023-06-11T08:46:54.426144","EPHEMERIS_TYPE":"0","ARG_OF_PERICENTER":"274.5695","BSTAR":"0.00002255500000","MEAN_MOTION":"15.71346372","PERIOD":"91.641"},{"BSTAR":"0.00002040100000","ARG_OF_PERICENTER":"274.0244","PERIOD":"91.641","MEAN_MOTION":"15.71351615","RCS_SIZE":"LARGE","TLE_LINE2":"2 56532  42.9985 274.4124 0001456 274.0244  86.0457 15.71351615  5643","OBJECT_NAME":"STARLINK-6319","GP_ID":"233698383","EPHEMERIS_TYPE":"0","EPOCH":"2023-06-11T08:47:21.535872","REF_FRAME":"TEME","FILE":"3930529","MEAN_ELEMENT_THEORY":"SGP4","OBJECT_TYPE":"PAYLOAD","PERIAPSIS":"354.055","MEAN_ANOMALY":"86.0457","RA_OF_ASC_NODE":"274.4124","ECCENTRICITY":"0.00014560","MEAN_MOTION_DOT":"0.00002224","MEAN_MOTION_DDOT":"0.0000000000000","CENTER_NAME":"EARTH","OBJECT_ID":"2023-065AF","NORAD_CAT_ID":"56532","LAUNCH_DATE":"2023-05-14","DECAY_DATE":null,"INCLINATION":"42.9985","SEMIMAJOR_AXIS":"6733.170","CLASSIFICATION_TYPE":"U","COUNTRY_CODE":"US","ELEMENT_SET_NO":"999","TLE_LINE1":"1 56532U 23065AF  23162.36622148  .00002224  00000-0  20401-4 0  9994","APOAPSIS":"356.016","REV_AT_EPOCH":"564","SITE":"AFETR","TIME_SYSTEM":"UTC"},{"REF_FRAME":"TEME","OBJECT_TYPE":"PAYLOAD","MEAN_ELEMENT_THEORY":"SGP4","FILE":"3930737","EPHEMERIS_TYPE":"0","EPOCH":"2023-06-11T16:24:23.811552","OBJECT_NAME":"STARLINK-6310","TLE_LINE2":"2 56533  42.9993 272.4919 0001789 266.4226  93.6437 15.71355475  5692","GP_ID":"233730345","RCS_SIZE":"LARGE","MEAN_MOTION":"15.71355475","PERIOD":"91.641","ARG_OF_PERICENTER":"266.4226","BSTAR":"0.00003081900000","TIME_SYSTEM":"UTC","SITE":"AFETR","REV_AT_EPOCH":"569","ELEMENT_SET_NO":"999","TLE_LINE1":"1 56533U 23065AG  23162.68360893  .00003591  00000-0  30819-4 0  9998","COUNTRY_CODE":"US","APOAPSIS":"356.229","DECAY_DATE":null,"SEMIMAJOR_AXIS":"6733.159","CLASSIFICATION_TYPE":"U","INCLINATION":"42.9993","NORAD_CAT_ID":"56533","LAUNCH_DATE":"2023-05-14","MEAN_MOTION_DDOT":"0.0000000000000","OBJECT_ID":"2023-065AG","CENTER_NAME":"EARTH","ECCENTRICITY":"0.00017890","MEAN_MOTION_DOT":"0.00003591","PERIAPSIS":"353.820","RA_OF_ASC_NODE":"272.4919","MEAN_ANOMALY":"93.6437"},{"COUNTRY_CODE":"US","ELEMENT_SET_NO":"999","TLE_LINE1":"1 56534U 23065AH  23162.68392420  .00002089  00000-0  19371-4 0  9991","APOAPSIS":"356.246","DECAY_DATE":null,"INCLINATION":"42.9997","SEMIMAJOR_AXIS":"6733.161","CLASSIFICATION_TYPE":"U","TIME_SYSTEM":"UTC","REV_AT_EPOCH":"569","SITE":"AFETR","ECCENTRICITY":"0.00018120","MEAN_MOTION_DOT":"0.00002089","PERIAPSIS":"353.806","MEAN_ANOMALY":"92.4458","RA_OF_ASC_NODE":"272.4942","NORAD_CAT_ID":"56534","LAUNCH_DATE":"2023-05-14","MEAN_MOTION_DDOT":"0.0000000000000","CENTER_NAME":"EARTH","OBJECT_ID":"2023-065AH","TLE_LINE2":"2 56534  42.9997 272.4942 0001812 267.6202  92.4458 15.71354959  5693","OBJECT_NAME":"STARLINK-6308","GP_ID":"233730722","RCS_SIZE":"LARGE","REF_FRAME":"TEME","MEAN_ELEMENT_THEORY":"SGP4","FILE":"3930737","OBJECT_TYPE":"PAYLOAD","EPHEMERIS_TYPE":"0","EPOCH":"2023-06-11T16:24:51.050880","BSTAR":"0.00001937100000","ARG_OF_PERICENTER":"267.6202","MEAN_MOTION":"15.71354959","PERIOD":"91.641"},{"BSTAR":"-0.00661890000000","ARG_OF_PERICENTER":"278.9278","PERIOD":"92.960","MEAN_MOTION":"15.49049939","RCS_SIZE":"LARGE","GP_ID":"233730405","OBJECT_NAME":"STARLINK-6309","TLE_LINE2":"2 56535  42.9982 272.3469 0001858 278.9278 169.9076 15.49049939  1303","EPOCH":"2023-06-11T22:00:00.999936","EPHEMERIS_TYPE":"0","FILE":"3930737","MEAN_ELEMENT_THEORY":"SGP4","OBJECT_TYPE":"PAYLOAD","REF_FRAME":"TEME","MEAN_ANOMALY":"169.9076","RA_OF_ASC_NODE":"272.3469","PERIAPSIS":"418.243","MEAN_MOTION_DOT":"-0.00352072","ECCENTRICITY":"0.00018580","CENTER_NAME":"EARTH","OBJECT_ID":"2023-065AJ","MEAN_MOTION_DDOT":"0.0000000000000","LAUNCH_DATE":"2023-05-14","NORAD_CAT_ID":"56535","INCLINATION":"42.9982","SEMIMAJOR_AXIS":"6797.641","CLASSIFICATION_TYPE":"U","DECAY_DATE":null,"APOAPSIS":"420.769","COUNTRY_CODE":"US","ELEMENT_SET_NO":"999","TLE_LINE1":"1 56535U 23065AJ  23162.91667824 -.00352072  00000-0 -66189-2 0  9990","REV_AT_EPOCH":"130","SITE":"AFETR","TIME_SYSTEM":"UTC"},{"GP_ID":"233701206","TLE_LINE2":"2 56536  42.9983 272.3476 0001607 280.5833 167.4086 15.49113589  4930","OBJECT_NAME":"STARLINK-6312","RCS_SIZE":"LARGE","FILE":"3930639","MEAN_ELEMENT_THEORY":"SGP4","OBJECT_TYPE":"PAYLOAD","REF_FRAME":"TEME","EPOCH":"2023-06-11T22:00:00.999936","EPHEMERIS_TYPE":"0","BSTAR":"-0.01401200000000","ARG_OF_PERICENTER":"280.5833","MEAN_MOTION":"15.49113589","PERIOD":"92.956","APOAPSIS":"420.412","COUNTRY_CODE":"US","ELEMENT_SET_NO":"999","TLE_LINE1":"1 56536U 23065AK  23162.91667824 -.00722279  00000-0 -14012-1 0  9998","INCLINATION":"42.9983","SEMIMAJOR_AXIS":"6797.455","CLASSIFICATION_TYPE":"U","DECAY_DATE":null,"TIME_SYSTEM":"UTC","REV_AT_EPOCH":"493","SITE":"AFETR","MEAN_MOTION_DOT":"-0.00722279","ECCENTRICITY":"0.00016070","MEAN_ANOMALY":"167.4086","RA_OF_ASC_NODE":"272.3476","PERIAPSIS":"418.228","LAUNCH_DATE":"2023-05-14","NORAD_CAT_ID":"56536","CENTER_NAME":"EARTH","OBJECT_ID":"2023-065AK","MEAN_MOTION_DDOT":"0.0000000000000"},{"REF_FRAME":"TEME","FILE":"3930737","MEAN_ELEMENT_THEORY":"SGP4","OBJECT_TYPE":"PAYLOAD","EPHEMERIS_TYPE":"0","EPOCH":"2023-06-11T22:00:00.999936","TLE_LINE2":"2 56537  42.9981 272.3444 0001691 280.9746 168.7182 15.48939528  1301","OBJECT_NAME":"STARLINK-6311","GP_ID":"233730602","RCS_SIZE":"LARGE","MEAN_MOTION":"15.48939528","PERIOD":"92.967","BSTAR":"-0.00122490000000","ARG_OF_PERICENTER":"280.9746","TIME_SYSTEM":"UTC","REV_AT_EPOCH":"130","SITE":"AFETR","COUNTRY_CODE":"US","ELEMENT_SET_NO":"999","TLE_LINE1":"1 56537U 23065AL  23162.91667824 -.00067559  00000-0 -12249-2 0  9993","APOAPSIS":"420.979","DECAY_DATE":null,"INCLINATION":"42.9981","SEMIMAJOR_AXIS":"6797.964","CLASSIFICATION_TYPE":"U","NORAD_CAT_ID":"56537","LAUNCH_DATE":"2023-05-14","MEAN_MOTION_DDOT":"0.0000000000000","CENTER_NAME":"EARTH","OBJECT_ID":"2023-065AL","ECCENTRICITY":"0.00016910","MEAN_MOTION_DOT":"-0.00067559","PERIAPSIS":"418.680","MEAN_ANOMALY":"168.7182","RA_OF_ASC_NODE":"272.3444"},{"INCLINATION":"43.0015","SEMIMAJOR_AXIS":"6733.161","CLASSIFICATION_TYPE":"U","DECAY_DATE":null,"APOAPSIS":"356.080","COUNTRY_CODE":"US","TLE_LINE1":"1 56538U 23065AM  23162.68350398  .00001018  00000-0  11207-4 0  9994","ELEMENT_SET_NO":"999","REV_AT_EPOCH":"569","SITE":"AFETR","TIME_SYSTEM":"UTC","MEAN_ANOMALY":"78.6077","RA_OF_ASC_NODE":"272.4913","PERIAPSIS":"353.973","MEAN_MOTION_DOT":"0.00001018","ECCENTRICITY":"0.00015650","CENTER_NAME":"EARTH","OBJECT_ID":"2023-065AM","MEAN_MOTION_DDOT":"0.0000000000000","LAUNCH_DATE":"2023-05-14","NORAD_CAT_ID":"56538","RCS_SIZE":"LARGE","GP_ID":"233730466","TLE_LINE2":"2 56538  43.0015 272.4913 0001565 281.4615  78.6077 15.71354725  5699","OBJECT_NAME":"STARLINK-6314","EPOCH":"2023-06-11T16:24:14.743872","EPHEMERIS_TYPE":"0","MEAN_ELEMENT_THEORY":"SGP4","FILE":"3930737","OBJECT_TYPE":"PAYLOAD","REF_FRAME":"TEME","BSTAR":"0.00001120700000","ARG_OF_PERICENTER":"281.4615","PERIOD":"91.641","MEAN_MOTION":"15.71354725"}];
